*******************************************************************************
 Revised: Mar 27, 2009             Nereid / (Neptune)                       802

            http://ssd.jpl.nasa.gov/sat_props.html  (physical properties)
            http://ssd.jpl.nasa.gov/sat_elem.html   (mean elements)

 SATELLITE PHYSICAL PROPERTIES:
  Radius (km)             =  170   +- 2.5   Density (g cm^-3)   =              
  Mass (10^20 kg )        =                 Geometric Albedo    =  0.2  
                                            V(1,0)              = +4.0 

 SATELLITE ORBITAL DATA:
  Semi-major axis, a (km) = 5513.4(10^3)    Orbital period      = 360.13619 d
  Eccentricity, e         = 0.7512          Rotational period   = 
  Inclination, i  (deg)   = 7.23            Local invar ref. pln= Sun   
  
 Fit to all reported measurements through 2008, as described in AJ (2009).
*******************************************************************************
 
 
*******************************************************************************
Ephemeris / WWW_USER Fri Jun 19 18:53:19 2020 Pasadena, USA      / Horizons
*******************************************************************************
Target body name: Nereid (802)                    {source: nep081xl}
Center body name: Solar System Barycenter (0)     {source: DE431mx}
Center-site name: BODY CENTER
*******************************************************************************
Start time      : A.D. 1969-Jun-28 00:00:00.0000 TDB
Stop  time      : A.D. 2071-May-04 00:00:00.0000 TDB
Step-size       : 7200 minutes
*******************************************************************************
Center geodetic : 0.00000000,0.00000000,0.0000000 {E-lon(deg),Lat(deg),Alt(km)}
Center cylindric: 0.00000000,0.00000000,0.0000000 {E-lon(deg),Dxy(km),Dz(km)}
Center radii    : (undefined)                                                  
Output units    : AU-D
Output type     : GEOMETRIC cartesian states
Output format   : 2 (position and velocity)
Reference frame : Ecliptic of J2000.0
*******************************************************************************
            JDTDB,            Calendar Date (TDB),        delta-T,                      X,                      Y,                      Z,                     VX,                     VY,                     VZ,
******************************************************************************************************************************************************************************************************************
$$SOE
2474570.500000000, A.D. 2063-Jan-16 00:00:00.0000,      69.184345,  3.535514806375368E+00,  2.971420492518922E+01, -6.869919145025855E-01, -3.377935821662406E-03,  4.008522454869331E-04,  4.969796862054696E-05,
2474575.500000000, A.D. 2063-Jan-21 00:00:00.0000,      69.184483,  3.518616573365617E+00,  2.971616002390439E+01, -6.867467561784280E-01, -3.381304381181895E-03,  3.811570981884230E-04,  4.836669586562533E-05,
2474580.500000000, A.D. 2063-Jan-26 00:00:00.0000,      69.184618,  3.501702293931318E+00,  2.971801616518285E+01, -6.865082360191461E-01, -3.384354026421051E-03,  3.612632921314139E-04,  4.704233925673452E-05,
2474585.500000000, A.D. 2063-Jan-31 00:00:00.0000,      69.184749,  3.484773570505888E+00,  2.971977226439254E+01, -6.862763248736822E-01, -3.387081131775212E-03,  3.411339498623063E-04,  4.572273314834311E-05,
2474590.500000000, A.D. 2063-Feb-05 00:00:00.0000,      69.184875,  3.467832031009802E+00,  2.972142704698503E+01, -6.860510043123763E-01, -3.389479091295033E-03,  3.207299014887615E-04,  4.440575229462259E-05,
2474595.500000000, A.D. 2063-Feb-10 00:00:00.0000,      69.184992,  3.450879344380770E+00,  2.972297903586003E+01, -6.858322664799958E-01, -3.391538056569568E-03,  3.000092121952699E-04,  4.308929273129182E-05,
2474600.500000000, A.D. 2063-Feb-15 00:00:00.0000,      69.185100,  3.433917237620705E+00,  2.972442653616618E+01, -6.856201140164871E-01, -3.393244582380832E-03,  2.789266237388968E-04,  4.177125611797030E-05,
2474605.500000000, A.D. 2063-Feb-20 00:00:00.0000,      69.185201,  3.416947514867133E+00,  2.972576761714939E+01, -6.854145600458531E-01, -3.394581169352339E-03,  2.574329140359048E-04,  4.044954325705020E-05,
2474610.500000000, A.D. 2063-Feb-25 00:00:00.0000,      69.185294,  3.399972079107050E+00,  2.972700009054158E+01, -6.852156282273850E-01, -3.395525666561327E-03,  2.354741607992550E-04,  3.912204094266657E-05,
2474615.500000000, A.D. 2063-Mar-02 00:00:00.0000,      69.185378,  3.382992957292733E+00,  2.972812148487170E+01, -6.850233528542762E-01, -3.396050495830459E-03,  2.129908506931782E-04,  3.778660742176591E-05,
2474620.500000000, A.D. 2063-Mar-07 00:00:00.0000,      69.185451,  3.366012329829854E+00,  2.972912901493464E+01, -6.848377789939881E-01, -3.396121664373938E-03,  1.899168101610300E-04,  3.644107024268888E-05,
2474625.500000000, A.D. 2063-Mar-12 00:00:00.0000,      69.185512,  3.349032565692393E+00,  2.973001954543123E+01, -6.846589626605122E-01, -3.395697497032836E-03,  1.661779336738610E-04,  3.508322495068239E-05,
2474630.500000000, A.D. 2063-Mar-17 00:00:00.0000,      69.185560,  3.332056264792195E+00,  2.973078954753006E+01, -6.844869709908413E-01, -3.394726986865054E-03,  1.416906302318940E-04,  3.371083028780310E-05,
2474635.500000000, A.D. 2063-Mar-22 00:00:00.0000,      69.185597,  3.315086309756059E+00,  2.973143504678047E+01, -6.843218823918231E-01, -3.393147646547977E-03,  1.163598949685862E-04,  3.232161801439699E-05,
2474640.500000000, A.D. 2063-Mar-27 00:00:00.0000,      69.185624,  3.298125930015756E+00,  2.973195156035030E+01, -6.841637866170474E-01, -3.390882699516159E-03,  9.007693205737946E-05,  3.091332197693677E-05,
2474645.500000000, A.D. 2063-Apr-01 00:00:00.0000,      69.185640,  3.281178782169051E+00,  2.973233402094280E+01, -6.840127846945961E-01, -3.387837342580833E-03,  6.271619414855499E-05,  2.948371236575881E-05,
2474650.500000000, A.D. 2063-Apr-06 00:00:00.0000,      69.185642,  3.264249052071893E+00,  2.973257668396577E+01, -6.838689885788900E-01, -3.383893708841389E-03,  3.413161572300895E-05,  2.803066100437700E-05,
2474655.500000000, A.D. 2063-Apr-11 00:00:00.0000,      69.185631,  3.247341586356955E+00,  2.973267301345044E+01, -6.837325203487365E-01, -3.378904016158579E-03,  4.151808327628897E-06,  2.655226651655149E-05,
2474660.500000000, A.D. 2063-Apr-16 00:00:00.0000,      69.185607,  3.230462064410668E+00,  2.973261554071030E+01, -6.836035106567151E-01, -3.372681084539044E-03, -2.742610347382053E-05,  2.504704606221340E-05,
2474665.500000000, A.D. 2063-Apr-21 00:00:00.0000,      69.185573,  3.213617226899212E+00,  2.973239568769704E+01, -6.834820959361229E-01, -3.364984946706865E-03, -6.084450808975967E-05,  2.351423829855642E-05,
2474670.500000000, A.D. 2063-Apr-26 00:00:00.0000,      69.185528,  3.196815184840920E+00,  2.973200354423412E+01, -6.833684135717868E-01, -3.355503585112633E-03, -9.639586960759766E-05,  2.195432504616001E-05,
2474675.500000000, A.D. 2063-May-01 00:00:00.0000,      69.185473,  3.180065845923904E+00,  2.973142758444924E+01, -6.832625937137022E-01, -3.343824623617234E-03, -1.344366812008407E-04,  2.036990436071430E-05,
2474680.500000000, A.D. 2063-May-06 00:00:00.0000,      69.185406,  3.163381515667596E+00,  2.973065430248546E+01, -6.831647454221325E-01, -3.329392580639990E-03, -1.754060002855433E-04,  1.876713783163592E-05,
2474685.500000000, A.D. 2063-May-11 00:00:00.0000,      69.185327,  3.146777766552775E+00,  2.972966774083468E+01, -6.830749330516908E-01, -3.311442395711107E-03, -2.198501183383951E-04,  1.715829108061448E-05,
2474690.500000000, A.D. 2063-May-16 00:00:00.0000,      69.185239,  3.130274731029482E+00,  2.972844887683884E+01, -6.829931354064582E-01, -3.288892639338594E-03, -2.684548852000803E-04,  1.556631911593233E-05,
2474695.500000000, A.D. 2063-May-21 00:00:00.0000,      69.185142,  3.113899089806629E+00,  2.972697482705417E+01, -6.829191733565357E-01, -3.260167174193889E-03, -3.220860924167003E-04,  1.403336859495562E-05,
2474700.500000000, A.D. 2063-May-26 00:00:00.0000,      69.185039,  3.097687249364650E+00,  2.972521783709480E+01, -6.828525771782636E-01, -3.222883624141611E-03, -3.818331453930769E-04,  1.263734613953177E-05,
2474705.500000000, A.D. 2063-May-31 00:00:00.0000,      69.184929,  3.081690654912420E+00,  2.972314408743824E+01, -6.827923326142957E-01, -3.173280324902823E-03, -4.490316245892038E-04,  1.152621493785231E-05,
2474710.500000000, A.D. 2063-Jun-05 00:00:00.0000,      69.184811,  3.065985159856429E+00,  2.972071260860085E+01, -6.827363668226633E-01, -3.105097880159970E-03, -5.251690076060384E-04,  1.099393172129592E-05,
2474715.500000000, A.D. 2063-Jun-10 00:00:00.0000,      69.184686,  3.050688605371376E+00,  2.971787560292288E+01, -6.826804309089199E-01, -3.007248618836532E-03, -6.113083341265753E-04,  1.166317966695756E-05,
2474720.500000000, A.D. 2063-Jun-15 00:00:00.0000,      69.184556,  3.035996122620513E+00,  2.971458541780952E+01, -6.826154452090292E-01, -2.858660362936491E-03, -7.055550809113287E-04,  1.497134044706064E-05,
2474725.500000000, A.D. 2063-Jun-20 00:00:00.0000,      69.184423,  3.022255010605707E+00,  2.971083029168663E+01, -6.825205085608878E-01, -2.616910566799968E-03, -7.920265401667436E-04,  2.459537789307607E-05,
2474730.500000000, A.D. 2063-Jun-25 00:00:00.0000,      69.184288,  3.010112480752167E+00,  2.970679852485033E+01, -6.823430278575298E-01, -2.203776710634451E-03, -7.913665390185429E-04,  5.056467755993701E-05,
2474735.500000000, A.D. 2063-Jun-30 00:00:00.0000,      69.184152,  3.000538600351458E+00,  2.970353692989591E+01, -6.819545596775660E-01, -1.623973622888010E-03, -4.116942793426067E-04,  1.115263689634059E-04,
